[{"OBJECT_NAME":"TIANPING 2A","OBJECT_ID":"2022-032A","EPOCH":"2026-03-09T22:58:37.953408","MEAN_MOTION":14.9690979,"ECCENTRICITY":0.00109299,"INCLINATION":97.5994,"RA_OF_ASC_NODE":109.5163,"ARG_OF_PERICENTER":146.1091,"MEAN_ANOMALY":214.0831,"EPHEMERIS_TYPE":0,"CLASSIFICATION_TYPE":"U","NORAD_CAT_ID":52153,"ELEMENT_SET_NO":999,"REV_AT_EPOCH":21499,"BSTAR":3.4221979e-5,"MEAN_MOTION_DOT":3.37e-6,"MEAN_MOTION_DDOT":0},{"OBJECT_NAME":"STARLINK-6064","OBJECT_ID":"2023-078AQ","EPOCH":"2026-03-09T22:48:04.955904","MEAN_MOTION":14.98321595,"ECCENTRICITY":0.00027596,"INCLINATION":70.0007,"RA_OF_ASC_NODE":323.7545,"ARG_OF_PERICENTER":270.2272,"MEAN_ANOMALY":89.8571,"EPHEMERIS_TYPE":0,"CLASSIFICATION_TYPE":"U","NORAD_CAT_ID":56805,"ELEMENT_SET_NO":999,"REV_AT_EPOCH":15321,"BSTAR":-1.0399114e-5,"MEAN_MOTION_DOT":-2.17e-6,"MEAN_MOTION_DDOT":0}]
